NORAD_CAT_ID,OBJECT_NAME,OBJECT_TYPE,EPOCH,MEAN_MOTION,ECCENTRICITY,INCLINATION,RA_OF_ASC_NODE,ARG_OF_PERICENTER,MEAN_ANOMALY,BSTAR,MEAN_MOTION_DOT,MEAN_MOTION_DDOT,TLE_LINE0,TLE_LINE1,TLE_LINE2,SEMIMAJOR_AXIS,PERIOD,APOGEE,PERIGEE,DECAYED
51958.0,STARLINK-3692,PAYLOAD,2022-07-19 14:00:01,15.088274800000002,0.0002257,53.2157,235.7202,35.9247,27.0606,0.0025385,0.00040331,0.0,0 STARLINK-3692,1 51958U 22025C   22200.58334491  .00040331  00000-0  25385-2 0  9998,2 51958  53.2157 235.7202 0002257  35.9247  27.0606 15.08827480  1308,6917.919,95.438,541.345,538.222,0.0
51958.0,STARLINK-3692,PAYLOAD,2022-07-19 22:00:00,15.08835478,0.0002115,53.2174,234.2068,35.4085,39.2421,0.00013387,1.843e-05,0.0,0 STARLINK-3692,1 51958U 22025C   22200.91667824  .00001843  00000-0  13387-3 0  9999,2 51958  53.2174 234.2068 0002115  35.4085  39.2421 15.08835478  1305,6917.894,95.438,541.222,538.2959999999998,0.0
51958.0,STARLINK-3692,PAYLOAD,2022-07-20 06:00:00,15.08878397,0.0002147,53.2162,232.7263,39.26300000000001,46.9411,-0.0038196999999999,-0.00060633,0.0,0 STARLINK-3692,1 51958U 22025C   22201.25001157 -.00060633  00000-0 -38197-2 0  9997,2 51958  53.2162 232.7263 0002147  39.2630  46.9411 15.08878397 21746,6917.763000000001,95.435,541.113,538.143,0.0
51958.0,STARLINK-3692,PAYLOAD,2022-07-20 14:00:01,15.0882691,0.0002262,53.2161,231.2308,34.5969,63.2201,0.0022304,0.00035375,0.0,0 STARLINK-3692,1 51958U 22025C   22201.58334491  .00035375  00000-0  22304-2 0  9999,2 51958  53.2161 231.2308 0002262  34.5969  63.2201 15.08826910  1303,6917.92,95.438,541.35,538.221,0.0
51958.0,STARLINK-3692,PAYLOAD,2022-07-20 22:00:01,15.08822747,0.0002024,53.2164,229.7327,37.8081,71.6667,0.002218,0.00035172,0.0,0 STARLINK-3692,1 51958U 22025C   22201.91668981  .00035172  00000-0  22180-2 0  9997,2 51958  53.2164 229.7327 0002024  37.8081  71.6667 15.08822747 21840,6917.933000000001,95.439,541.198,538.398,0.0
51958.0,STARLINK-3692,PAYLOAD,2022-07-21 08:00:01,15.0883072,0.0002171999999999,53.2164,227.8636,35.284,178.6192,-0.0020096,-0.00032122,0.0,0 STARLINK-3692,1 51958U 22025C   22202.33334491 -.00032122  00000-0 -20096-2 0  9998,2 51958  53.2164 227.8636 0002172  35.2840 178.6192 15.08830720 21909,6917.909000000002,95.438,541.276,538.271,0.0
51958.0,STARLINK-3692,PAYLOAD,2022-07-21 14:00:01,15.08805667,0.0002215,53.2162,226.7416,32.5161,100.127,0.0014093,0.00022191,0.0,0 STARLINK-3692,1 51958U 22025C   22202.58335648  .00022191  00000-0  14093-2 0  9993,2 51958  53.2162 226.7416 0002215  32.5161 100.1270 15.08805667  1306,6917.985,95.44,541.383,538.318,0.0
51958.0,STARLINK-3692,PAYLOAD,2022-07-21 22:00:00,15.08796709,0.0001981,53.2163,225.2437,36.4978,107.6551,0.0024841999999999,0.00039423,0.0,0 STARLINK-3692,1 51958U 22025C   22202.91667824  .00039423  00000-0  24842-2 0  9993,2 51958  53.2163 225.2437 0001981  36.4978 107.6551 15.08796709  1302,6918.013000000001,95.44,541.248,538.507,0.0
51958.0,STARLINK-3692,PAYLOAD,2022-07-22 06:00:00,15.08835462,0.0002112,53.2164,223.7485,36.6479,119.0652,-0.0017059,-0.00027332,0.0,0 STARLINK-3692,1 51958U 22025C   22203.25001157 -.00027332  00000-0 -17059-2 0  9992,2 51958  53.2164 223.7485 0002112  36.6479 119.0652 15.08835462  1303,6917.894,95.438,541.22,538.298,0.0
51958.0,STARLINK-3692,PAYLOAD,2022-07-22 12:00:00,15.0880225,0.0002224,53.2161,222.6272,34.2366,40.1669,0.0027788,0.00044169,0.0,0 STARLINK-3692,1 51958U 22025C   22203.50001157  .00044169  00000-0  27788-2 0  9995,2 51958  53.2161 222.6272 0002224  34.2366  40.1669 15.08802250 22073,6917.996,95.44,541.399,538.322,0.0
51958.0,STARLINK-3692,PAYLOAD,2022-07-22 22:00:00,15.08808262,0.0002008,53.2158,220.7548,38.5122,140.3651,0.0025875,0.00041097,0.0,0 STARLINK-3692,1 51958U 22025C   22203.91667824  .00041097  00000-0  25875-2 0  9991,2 51958  53.2158 220.7548 0002008  38.5122 140.3651 15.08808262  1307,6917.977,95.44,541.232,538.453,0.0
51958.0,STARLINK-3692,PAYLOAD,2022-07-23 14:00:01,15.08831261,0.0002249,53.2152,217.7637,36.0727,166.0171,1.0641e-05,-1.19e-06,0.0,0 STARLINK-3692,1 51958U 22025C   22204.58335648 -.00000119  00000-0  10641-4 0  9999,2 51958  53.2152 217.7637 0002249  36.0727 166.0171 15.08831261  1304,6917.906999999997,95.438,541.328,538.216,0.0
51958.0,STARLINK-3692,PAYLOAD,2022-07-23 22:00:00,15.08812572,0.0002061,53.2151,216.2658,40.6564,172.9641,0.0024804,0.00039379,0.0,0 STARLINK-3692,1 51958U 22025C   22204.91667824  .00039379  00000-0  24804-2 0  9993,2 51958  53.2151 216.2658 0002061  40.6564 172.9641 15.08812572  1304,6917.964,95.439,541.255,538.403,0.0
51958.0,STARLINK-3692,PAYLOAD,2022-07-24 14:00:01,15.08841867,0.0002296999999999,53.2146,213.2747,37.7194,199.0652,-0.00064127,-0.00010481,0.0,0 STARLINK-3692,1 51958U 22025C   22205.58334491 -.00010481  00000-0 -64127-3 0  9996,2 51958  53.2146 213.2747 0002297  37.7194 199.0652 15.08841867  1302,6917.875,95.437,541.3290000000002,538.151,0.0
51958.0,STARLINK-3692,PAYLOAD,2022-07-24 22:00:00,15.08816741,0.000215,53.2146,211.7767,42.3505,206.0334,0.0024741999999999,0.00039284,0.0,0 STARLINK-3692,1 51958U 22025C   22205.91667824  .00039284  00000-0  24742-2 0  9990,2 51958  53.2146 211.7767 0002150  42.3505 206.0334 15.08816741  1302,6917.951,95.439,541.304,538.3290000000002,0.0
51958.0,STARLINK-3692,PAYLOAD,2022-07-25 14:00:01,15.08850635,0.0002381999999999,53.2144,208.7854,38.8412,232.7161,-0.0012243,-0.00019727,0.0,0 STARLINK-3692,1 51958U 22025C   22206.58334491 -.00019727  00000-0 -12243-2 0  9990,2 51958  53.2144 208.7854 0002382  38.8412 232.7161 15.08850635  1301,6917.848000000001,95.437,541.361,538.065,0.0
51958.0,STARLINK-3692,PAYLOAD,2022-07-25 22:00:00,15.08821503,0.0002266999999999,53.2145,207.2873,43.7419,239.4214,0.0025351999999999,0.00040271,0.0,0 STARLINK-3692,1 51958U 22025C   22206.91667824  .00040271  00000-0  25352-2 0  9997,2 51958  53.2145 207.2873 0002267  43.7419 239.4214 15.08821503  1306,6917.937,95.439,541.37,538.234,0.0
51958.0,STARLINK-3692,PAYLOAD,2022-07-26 06:00:00,15.0885012,0.0002463999999999,53.2145,205.7926,41.8917,252.8648,-0.001077,-0.00017394,0.0,0 STARLINK-3692,1 51958U 22025C   22207.25001157 -.00017394  00000-0 -10770-2 0  9996,2 51958  53.2145 205.7926 0002464  41.8917 252.8648 15.08850120 22646,6917.849,95.437,541.419,538.01,0.0
51958.0,STARLINK-3692,PAYLOAD,2022-07-26 14:00:01,15.08860029,0.0002493,53.2145,204.2959,40.274,266.0762,-0.0016277,-0.00026115,0.0,0 STARLINK-3692,1 51958U 22025C   22207.58334491 -.00026115  00000-0 -16277-2 0  9991,2 51958  53.2145 204.2959 0002493  40.2740 266.0762 15.08860029  1308,6917.819,95.436,541.409,537.96,0.0
51958.0,STARLINK-3692,PAYLOAD,2022-07-26 22:00:00,15.08829361,0.000239,53.2148,202.7979,45.2994,272.6645,0.0025705,0.00040848,0.0,0 STARLINK-3692,1 51958U 22025C   22207.91667824  .00040848  00000-0  25705-2 0  9990,2 51958  53.2148 202.7979 0002390  45.2994 272.6645 15.08829361 22746,6917.913000000001,95.438,541.431,538.125,0.0
51958.0,STARLINK-3692,PAYLOAD,2022-07-27 14:00:01,15.08870426,0.0002595,53.215,199.8064,42.1299,299.0421,-0.0019074,-0.00030544,0.0,0 STARLINK-3692,1 51958U 22025C   22208.58334491 -.00030544  00000-0 -19074-2 0  9991,2 51958  53.2150 199.8064 0002595  42.1299 299.0421 15.08870426  1303,6917.7869999999975,95.436,541.448,537.857,0.0
51958.0,STARLINK-3692,PAYLOAD,2022-07-27 16:00:00,15.08868518,0.0002549999999999,53.2153,199.4317,43.849,30.2283,-0.0018905999999999,-0.00030277,0.0,0 STARLINK-3692,1 51958U 22025C   22208.66667824 -.00030277  00000-0 -18906-2 0  9995,2 51958  53.2153 199.4317 0002550  43.8490  30.2283 15.08868518 22858,6917.793000000002,95.436,541.422,537.894,0.0
51958.0,STARLINK-3692,PAYLOAD,2022-07-27 22:00:00,15.08840797,0.0002484,53.2154,198.3086,47.1759,305.6201,0.0024558,0.00039015,0.0,0 STARLINK-3692,1 51958U 22025C   22208.91667824  .00039015  00000-0  24558-2 0  9990,2 51958  53.2154 198.3086 0002484  47.1759 305.6201 15.08840797  1306,6917.878000000002,95.438,541.461,538.025,0.0
51958.0,STARLINK-3692,PAYLOAD,2022-07-28 08:00:01,15.08852892,0.0002692,53.2157,196.44,43.9515,53.3691,0.00094117,0.00014728,0.0,0 STARLINK-3692,1 51958U 22025C   22209.33334491  .00014728  00000-0  94117-3 0  9991,2 51958  53.2157 196.4400 0002692  43.9515  53.3691 15.08852892 22967,6917.840999999999,95.437,541.568,537.844,0.0
51958.0,STARLINK-3692,PAYLOAD,2022-07-28 14:00:01,15.08889364,0.0002616,53.2155,195.3169,43.2434,332.7807,-0.0049809,-0.00078805,0.0,0 STARLINK-3692,1 51958U 22025C   22209.58334491 -.00078805  00000-0 -49809-2 0  9993,2 51958  53.2155 195.3169 0002616  43.2434 332.7807 15.08889364  1306,6917.73,95.434,541.404,537.785,0.0
51958.0,STARLINK-3692,PAYLOAD,2022-07-28 22:00:00,15.08825138,0.0002452,53.2159,193.8193,47.3614,340.2872,0.0021973,0.00034842,0.0,0 STARLINK-3692,1 51958U 22025C   22209.91667824  .00034842  00000-0  21973-2 0  9992,2 51958  53.2159 193.8193 0002452  47.3614 340.2872 15.08825138  1308,6917.926,95.438,541.487,538.095,0.0
51958.0,STARLINK-3692,PAYLOAD,2022-07-29 00:00:00,15.08845761,0.0002471,53.2161,193.4431,47.7589,72.7824,3.1846999999999995e-05,2.19e-06,0.0,0 STARLINK-3692,1 51958U 22025C   22210.00001157  .00000219  00000-0  31847-4 0  9999,2 51958  53.2161 193.4431 0002471  47.7589  72.7824 15.08845761 23063,6917.863,95.437,541.437,538.018,0.0
51958.0,STARLINK-3692,PAYLOAD,2022-07-29 14:00:01,15.08856279,0.0002591,53.2159,190.8276,44.5105,6.313,-0.0021644999999999,-0.00034589,0.0,0 STARLINK-3692,1 51958U 22025C   22210.58334491 -.00034589  00000-0 -21645-2 0  9994,2 51958  53.2159 190.8276 0002591  44.5105   6.3130 15.08856279  1302,6917.831,95.437,541.488,537.903,0.0
51958.0,STARLINK-3692,PAYLOAD,2022-07-29 22:00:00,15.08832095,0.0002474,53.2162,189.3303,49.3654,13.0591,0.0017494,0.00027658,0.0,0 STARLINK-3692,1 51958U 22025C   22210.91667824  .00027658  00000-0  17494-2 0  9994,2 51958  53.2162 189.3303 0002474  49.3654  13.0591 15.08832095  1308,6917.905,95.438,541.481,538.058,0.0
